NORAD_CAT_ID,OBJECT_NAME,OBJECT_TYPE,EPOCH,MEAN_MOTION,ECCENTRICITY,INCLINATION,RA_OF_ASC_NODE,ARG_OF_PERICENTER,MEAN_ANOMALY,BSTAR,MEAN_MOTION_DOT,MEAN_MOTION_DDOT,TLE_LINE0,TLE_LINE1,TLE_LINE2,SEMIMAJOR_AXIS,PERIOD,APOGEE,PERIGEE,DECAYED
51998.0,STARLINK-3618,PAYLOAD,2022-05-23 22:00:01,15.62593026,0.000109,53.2174,127.1052,76.5955,357.4399,-0.0085665999999999,-0.00714698,0.0,0 STARLINK-3618,1 51998U 22025AU  22143.91668981 -.00714698  00000-0 -85666-2 0  9993,2 51998  53.2174 127.1052 0001090  76.5955 357.4399 15.62593026  1304,6758.307,92.155,380.909,379.435,0.0
51998.0,STARLINK-3618,PAYLOAD,2022-05-24 05:21:42,15.629387,0.0002056,53.2126,125.5986,90.3407,269.7844,-0.0038828,-0.00343907,0.0,0 STARLINK-3618,1 51998U 22025AU  22144.22341267 -.00343907  00000-0 -38828-2 0  9992,2 51998  53.2126 125.5986 0002056  90.3407 269.7844 15.62938700 13178,6757.311,92.134,380.565,377.786,0.0
51998.0,STARLINK-3618,PAYLOAD,2022-05-24 12:00:00,15.617016199999998,0.0001119,53.2172,124.2703,74.2621,42.0792,-0.0088887999999999,-0.00716018,0.0,0 STARLINK-3618,1 51998U 22025AU  22144.50001157 -.00716018  00000-0 -88888-2 0  9992,2 51998  53.2172 124.2703 0001119  74.2621  42.0792 15.61701620 13217,6760.879,92.207,383.5,381.987,0.0
51998.0,STARLINK-3618,PAYLOAD,2022-05-24 14:00:01,15.61575186,0.0001198,53.2174,123.8648,83.7734,141.3252,-0.0089655,-0.00718441,0.0,0 STARLINK-3618,1 51998U 22025AU  22144.58334491 -.00718441  00000-0 -89655-2 0  9995,2 51998  53.2174 123.8648 0001198  83.7734 141.3252 15.61575186  1306,6761.243,92.215,383.918,382.298,0.0
51998.0,STARLINK-3618,PAYLOAD,2022-05-24 22:00:00,15.61062523,0.000116,53.2177,122.2445,83.4631,216.2825,-0.0090689,-0.00712864,0.0,0 STARLINK-3618,1 51998U 22025AU  22144.91667824 -.00712864  00000-0 -90689-2 0  9993,2 51998  53.2177 122.2445 0001160  83.4631 216.2825 15.61062523  1303,6762.724,92.245,385.37300000000016,383.804,0.0
51998.0,STARLINK-3618,PAYLOAD,2022-05-25 12:00:00,15.60172371,0.0001041,53.2172,119.416,82.1916,256.7074,-0.0094367,-0.00716331,0.0,0 STARLINK-3618,1 51998U 22025AU  22145.50001157 -.00716331  00000-0 -94367-2 0  9990,2 51998  53.2172 119.4160 0001041  82.1916 256.7074 15.60172371 13377,6765.295999999999,92.297,387.865,386.456,0.0
51998.0,STARLINK-3618,PAYLOAD,2022-05-25 14:00:01,15.60043776,0.0001077,53.2173,119.0114,77.018,10.1794,-0.0094649,-0.00715043,0.0,0 STARLINK-3618,1 51998U 22025AU  22145.58334491 -.00715043  00000-0 -94649-2 0  9990,2 51998  53.2173 119.0114 0001077  77.0180  10.1794 15.60043776  1305,6765.668000000002,92.305,388.261,386.804,0.0
51998.0,STARLINK-3618,PAYLOAD,2022-05-25 22:00:00,15.59533787,0.0001281999999999,53.2175,117.3951,67.3897,92.6152,-0.0096362,-0.00713992,0.0,0 STARLINK-3618,1 51998U 22025AU  22145.91667824 -.00713992  00000-0 -96362-2 0  9991,2 51998  53.2175 117.3951 0001282  67.3897  92.6152 15.59533787  1309,6767.142,92.335,389.875,388.14,0.0
51998.0,STARLINK-3618,PAYLOAD,2022-05-26 03:28:18,15.60125408,0.0001913,53.212,116.2747,62.5842,297.5367,-0.0037936,-0.00302791,0.0,0 STARLINK-3618,1 51998U 22025AU  22146.14465500 -.00302791  00000-0 -37936-2 0  9997,2 51998  53.2120 116.2747 0001913  62.5842 297.5367 15.60125408 13472,6765.432,92.3,388.591,386.002,0.0
51998.0,STARLINK-3618,PAYLOAD,2022-05-26 06:00:00,15.59023695,0.0001306,53.2174,115.7831,74.1024,158.0961,-0.0098375,-0.00714752,0.0,0 STARLINK-3618,1 51998U 22025AU  22146.25001157 -.00714752  00000-0 -98375-2 0  9991,2 51998  53.2174 115.7831 0001306  74.1024 158.0961 15.59023695 13492,6768.618,92.365,391.367,389.599,0.0
51998.0,STARLINK-3618,PAYLOAD,2022-05-26 14:00:01,15.58515085,0.0001124,53.2174,114.1691,95.2991,208.4813,-0.010068,-0.00717197,0.0,0 STARLINK-3618,1 51998U 22025AU  22146.58334491 -.00717197  00000-0 -10068-1 0  9995,2 51998  53.2174 114.1691 0001124  95.2991 208.4813 15.58515085  1305,6770.090999999999,92.396,392.717,391.195,0.0
51998.0,STARLINK-3618,PAYLOAD,2022-05-26 22:00:00,15.58002678,0.0001082,53.2175,112.5567,82.4911,292.2593,-0.010188,-0.00712206,0.0,0 STARLINK-3618,1 51998U 22025AU  22146.91667824 -.00712206  00000-0 -10188-1 0  9990,2 51998  53.2175 112.5567 0001082  82.4911 292.2593 15.58002678  1308,6771.575,92.426,394.173,392.708,0.0
51998.0,STARLINK-3618,PAYLOAD,2022-05-27 02:00:01,15.57747526,0.0001286999999999,53.2173,111.7524,72.4461,157.5585,-0.010284,-0.00712062,0.0,0 STARLINK-3618,1 51998U 22025AU  22147.08334491 -.00712062  00000-0 -10284-1 0  9997,2 51998  53.2173 111.7524 0001287  72.4461 157.5585 15.57747526 13625,6772.315,92.441,395.051,393.3080000000001,0.0
51998.0,STARLINK-3618,PAYLOAD,2022-05-27 14:00:01,15.56985084,0.0001174,53.2174,109.3379,89.626,65.2227,-0.010656,-0.00716492,0.0,0 STARLINK-3618,1 51998U 22025AU  22147.58334491 -.00716492  00000-0 -10656-1 0  9996,2 51998  53.2174 109.3379 0001174  89.6260  65.2227 15.56985084  1301,6774.525,92.486,397.186,395.595,0.0
51998.0,STARLINK-3618,PAYLOAD,2022-05-27 22:00:01,15.56473877,0.0001296999999999,53.2176,107.7293,78.8754,145.1691,-0.010807,-0.0071317,0.0,0 STARLINK-3618,1 51998U 22025AU  22147.91668981 -.00713170  00000-0 -10807-1 0  9995,2 51998  53.2176 107.7293 0001297  78.8754 145.1691 15.56473877  1309,6776.009,92.517,398.752,396.995,0.0
51998.0,STARLINK-3618,PAYLOAD,2022-05-28 03:12:29,15.57143243,0.0002071,53.2128,106.6665,75.2442,284.88,-0.0041658,-0.00297156,0.0,0 STARLINK-3618,1 51998U 22025AU  22148.13367182 -.00297156  00000-0 -41658-2 0  9999,2 51998  53.2128 106.6665 0002071  75.2442 284.8800 15.57143243 13783,6774.066999999999,92.477,397.335,394.529,0.0
51998.0,STARLINK-3618,PAYLOAD,2022-05-28 12:00:00,15.55582762,0.000121,53.2172,104.9195,90.3623,163.1206,-0.011236,-0.00716883,0.0,0 STARLINK-3618,1 51998U 22025AU  22148.50001157 -.00716883  00000-0 -11236-1 0  9998,2 51998  53.2172 104.9195 0001210  90.3623 163.1206 15.55582762 13841,6778.596,92.57,401.281,399.641,0.0
51998.0,STARLINK-3618,PAYLOAD,2022-05-28 14:00:01,15.55454419,0.0001049,53.2175,104.5178,93.5971,266.805,-0.01126,-0.00715126,0.0,0 STARLINK-3618,1 51998U 22025AU  22148.58334491 -.00715126  00000-0 -11260-1 0  9992,2 51998  53.2175 104.5178 0001049  93.5971 266.8050 15.55454419  1316,6778.969,92.577,401.545,400.12300000000016,0.0
51998.0,STARLINK-3618,PAYLOAD,2022-05-28 22:00:00,15.54943199,0.0001082,53.2175,102.9131,86.50200000000002,341.1929,-0.011428,-0.00712425,0.0,0 STARLINK-3618,1 51998U 22025AU  22148.91667824 -.00712425  00000-0 -11428-1 0  9993,2 51998  53.2175 102.9131 0001082  86.5020 341.1929 15.54943199  1309,6780.455,92.608,403.05300000000005,401.586,0.0
51998.0,STARLINK-3618,PAYLOAD,2022-05-29 14:00:01,15.53925532,0.0001248,53.2174,99.7087,92.9683,107.4714,-0.011934,-0.00716269,0.0,0 STARLINK-3618,1 51998U 22025AU  22149.58334491 -.00716269  00000-0 -11934-1 0  9990,2 51998  53.2174  99.7087 0001248  92.9683 107.4714 15.53925532  1306,6783.415,92.669,406.126,404.4330000000001,0.0
51998.0,STARLINK-3618,PAYLOAD,2022-05-29 20:00:01,15.53541748,0.000124,53.2173,98.5075,86.102,73.4862,-0.012052,-0.007135,0.0,0 STARLINK-3618,1 51998U 22025AU  22149.83334491 -.00713500  00000-0 -12052-1 0  9995,2 51998  53.2173  98.5075 0001240  86.1020  73.4862 15.53541748 14045,6784.531999999997,92.691,407.23800000000006,405.556,0.0
51998.0,STARLINK-3618,PAYLOAD,2022-05-29 20:51:35,15.54651768,5.31e-05,53.2126,98.3178,97.4749,262.6323,-0.0045301,-0.00294622,0.0,0 STARLINK-3618,1 51998U 22025AU  22149.86916014 -.00294622  00000-0 -45301-2 0  9998,2 51998  53.2126  98.3178 0000531  97.4749 262.6323 15.54651768 12542,6781.302,92.625,403.527,402.807,0.0
51998.0,STARLINK-3618,PAYLOAD,2022-05-30 03:02:20,15.54059081,8.1e-05,53.2128,97.0839,48.0919,312.0162,-0.0052046,-0.00329716,0.0,0 STARLINK-3618,1 51998U 22025AU  22150.12663029 -.00329716  00000-0 -52046-2 0  9991,2 51998  53.2128  97.0839 0000810  48.0919 312.0162 15.54059081 14098,6783.026,92.661,405.441,404.342,0.0
51998.0,STARLINK-3618,PAYLOAD,2022-05-30 12:00:00,15.52523,0.0001134,53.2173,95.3105,94.5341,194.429,-0.012557,-0.00716041,0.0,0 STARLINK-3618,1 51998U 22025AU  22150.50001157 -.00716041  00000-0 -12557-1 0  9994,2 51998  53.2173  95.3105 0001134  94.5341 194.4290 15.52523000 14156,6787.5,92.752,410.134,408.595,0.0
51998.0,STARLINK-3618,PAYLOAD,2022-05-30 13:51:31,15.53787086,0.000168,53.2135,94.9252,124.9923,235.1246,-0.0035745,-0.00227268,0.0,0 STARLINK-3618,1 51998U 22025AU  22150.57744771 -.00227268  00000-0 -35745-2 0  9990,2 51998  53.2135  94.9252 0001680 124.9923 235.1246 15.53787086 12656,6783.818,92.677,406.822,404.543,0.0
51998.0,STARLINK-3618,PAYLOAD,2022-05-30 22:00:00,15.5188379,0.0001133,53.2177,93.3138,85.8144,12.7645,-0.012787,-0.00712765,0.0,0 STARLINK-3618,1 51998U 22025AU  22150.91667824 -.00712765  00000-0 -12787-1 0  9992,2 51998  53.2177  93.3138 0001133  85.8144  12.7645 15.51883790  1300,6789.363,92.79,411.997,410.459,0.0
51998.0,STARLINK-3618,PAYLOAD,2022-05-31 05:19:03,15.52606912,0.0001359,53.2135,91.8407,112.9908,247.1247,-0.0035668,-0.00217533,0.0,0 STARLINK-3618,1 51998U 22025AU  22151.22157316 -.00217533  00000-0 -35668-2 0  9994,2 51998  53.2135  91.8407 0001359 112.9908 247.1247 15.52606912 12759,6787.255,92.747,410.042,408.198,0.0
51998.0,STARLINK-3618,PAYLOAD,2022-05-31 12:00:00,15.50991602,0.0001144,53.2173,90.5226,83.5741,34.8569,-0.013211,-0.00722227,0.0,0 STARLINK-3618,1 51998U 22025AU  22151.50001157 -.00722227  00000-0 -13211-1 0  9996,2 51998  53.2173  90.5226 0001144  83.5741  34.8569 15.50991602 14308,6791.967,92.844,414.609,413.055,0.0
51998.0,STARLINK-3618,PAYLOAD,2022-05-31 22:00:00,15.50272343,0.000128,53.2177,88.5299,89.1395,196.6249,-0.0093234,-0.00503813,0.0,0 STARLINK-3618,1 51998U 22025AU  22151.91667824 -.00503813  00000-0 -93234-2 0  9992,2 51998  53.2177  88.5299 0001280  89.1395 196.6249 15.50272343  1309,6794.066999999999,92.887,416.802,415.06300000000016,0.0
